ONEWEB-0291             
1 49081U 21075G   23059.51544319 -.00000003  00000+0 -40011-4 0  9992
2 49081  87.9073 245.1795 0001875 102.0493 258.0849 13.18035695 74964
ONEWEB-0291             
1 49081U 21075G   23059.59135814  .00000339  00000+0  83400-3 0  9994
2 49081  87.9073 245.1644 0001827 103.3068 256.8268 13.18032915 75960
ONEWEB-0291             
1 49081U 21075G   23059.89501355  .00000004  00000+0 -22416-4 0  9995
2 49081  87.9072 245.1039 0001905 101.4661 258.6685 13.18035290 75010
ONEWEB-0291             
1 49081U 21075G   23060.80598079  .00000059  00000+0  11930-3 0  9994
2 49081  87.9074 244.9223 0001934 101.0333 259.1016 13.18035192 76126
ONEWEB-0291             
1 49081U 21075G   23060.88189542 -.00000028  00000+0 -10510-3 0  9994
2 49081  87.9076 244.9072 0001913 101.2002 258.9345 13.18034601 75149
ONEWEB-0291             
1 49081U 21075G   23061.79286227  .00000075  00000+0  15797-3 0  9995
2 49081  87.9077 244.7257 0001911 100.6585 259.4762 13.18034952 75261
ONEWEB-0291             
1 49081U 21075G   23062.47608838  .00000010  00000+0 -80193-5 0  9991
2 49081  87.9080 244.5895 0001886 100.2565 259.8779 13.18034380 75353
ONEWEB-0291             
1 49081U 21075G   23062.47608838  .00000010  00000+0 -80193-5 0  9991
2 49081  87.9080 244.5895 0001886 100.2565 259.8779 13.18034380 76343
ONEWEB-0291             
1 49081U 21075G   23062.77974347  .00000060  00000+0  12105-3 0  9995
2 49081  87.9081 244.5290 0001896 100.2381 259.8965 13.18035193 75394
